STARLINK-31657          
1 59487U 24071D   26068.08129746 -.00004398  00000+0 -15047-3 0  9991
2 59487  43.0031 343.0916 0001439 283.5557  76.5134 15.27566210108116
2025-313BE              
1 67482U 25313BE  26068.69721505  .00077178  00000+0  26504-2 0  9996
2 67482  97.3989 145.3568 0007208 335.3714  24.7181 15.29801687  7972
